NORAD_CAT_ID,OBJECT_NAME,OBJECT_TYPE,EPOCH,MEAN_MOTION,ECCENTRICITY,INCLINATION,RA_OF_ASC_NODE,ARG_OF_PERICENTER,MEAN_ANOMALY,BSTAR,MEAN_MOTION_DOT,MEAN_MOTION_DDOT,TLE_LINE0,TLE_LINE1,TLE_LINE2,SEMIMAJOR_AXIS,PERIOD,APOGEE,PERIGEE,DECAYED
27216,PSLV DEB,DEBRIS,2022-05-09 08:37:53,15.07941125,0.0028242,98.2005,174.1897,319.7299,102.1094,0.00055257,8.497e-05,0.0,0 PSLV DEB,1 27216U 01049FL  22129.35964300  .00008497  00000-0  55257-3 0  9993,2 27216  98.2005 174.1897 0028242 319.7299 102.1094 15.07941125106064,6920.629,95.494,562.039,522.9490000000002,0.0
27216,PSLV DEB,DEBRIS,2022-05-10 02:06:45,15.07953913,0.0028215999999999996,98.2005,174.9666,317.2351,96.2829,0.00055405,8.522e-05,0.0,0 PSLV DEB,1 27216U 01049FL  22130.08802942  .00008522  00000-0  55405-3 0  9992,2 27216  98.2005 174.9666 0028216 317.2351  96.2829 15.07953913106189,6920.59,95.494,561.982,522.928,0.0
27216,PSLV DEB,DEBRIS,2022-05-11 02:02:51,15.07971213,0.0028176,98.2008,176.0303,313.7004,110.4092,0.00055225,8.498e-05,0.0,0 PSLV DEB,1 27216U 01049FL  22131.08531778  .00008498  00000-0  55225-3 0  9991,2 27216  98.2008 176.0303 0028176 313.7004 110.4092 15.07971213106324,6920.5369999999975,95.493,561.9019999999998,522.903,0.0
27216,PSLV DEB,DEBRIS,2022-05-11 08:23:35,15.079740900000001,0.0028155000000000003,98.2008,176.3123,312.7526,105.8004,0.00049218,7.565e-05,0.0,0 PSLV DEB,1 27216U 01049FL  22131.34971473  .00007565  00000-0  49218-3 0  9999,2 27216  98.2008 176.3123 0028155 312.7526 105.8004 15.07974090106374,6920.528,95.492,561.878,522.909,0.0
27216,PSLV DEB,DEBRIS,2022-05-12 21:31:59,15.08006514,0.0028048,98.2011,177.9628,307.405,226.9677,0.00066609,0.00010277,0.0,0 PSLV DEB,1 27216U 01049FL  22132.89721615  .00010277  00000-0  66609-3 0  9998,2 27216  98.2011 177.9628 0028048 307.4050 226.9677 15.08006514106604,6920.429,95.49,561.705,522.884,0.0
27216,PSLV DEB,DEBRIS,2022-05-13 01:40:45,15.08010154,0.0028047,98.2012,178.1471,306.7975,84.8601,0.00066342,0.00010236,0.0,0 PSLV DEB,1 27216U 01049FL  22133.06997267  .00010236  00000-0  66342-3 0  9995,2 27216  98.2012 178.1471 0028047 306.7975  84.8601 15.08010154106626,6920.418000000002,95.49,561.693,522.873,0.0
27216,PSLV DEB,DEBRIS,2022-05-13 21:25:26,15.080264499999998,0.0027988,98.20100000000001,179.025,303.9611,231.2107,0.00064866,0.00010011,0.0,0 PSLV DEB,1 27216U 01049FL  22133.89266404  .00010011  00000-0  64866-3 0  9998,2 27216  98.2010 179.0250 0027988 303.9611 231.2107 15.08026450106757,6920.368,95.48899999999999,561.602,522.864,0.0
27216,PSLV DEB,DEBRIS,2022-05-14 09:25:51,15.0803815,0.0027932,98.2009,179.5587,302.2,67.3467,0.00068869,0.00010637,0.0,0 PSLV DEB,1 27216U 01049FL  22134.39295830  .00010637  00000-0  68869-3 0  9990,2 27216  98.2009 179.5587 0027932 302.2000  67.3467 15.08038150106821,6920.3319999999985,95.488,561.5269999999998,522.868,0.0
27216,PSLV DEB,DEBRIS,2022-05-14 14:50:09,15.08043634,0.0027878,98.2008,179.799,301.4842,209.9738,0.00070841,0.00010946,0.0,0 PSLV DEB,1 27216U 01049FL  22134.61817118  .00010946  00000-0  70841-3 0  9990,2 27216  98.2008 179.7990 0027878 301.4842 209.9738 15.08043634106866,6920.316,95.488,561.4730000000002,522.888,0.0
27216,PSLV DEB,DEBRIS,2022-05-15 01:34:59,15.08055711,0.0027813000000000004,98.2004,180.2768,300.0063,120.9953,0.00079181,0.00012249,0.0,0 PSLV DEB,1 27216U 01049FL  22135.06596241  .00012249  00000-0  79181-3 0  9995,2 27216  98.2004 180.2768 0027813 300.0063 120.9953 15.08055711106939,6920.279,95.48700000000001,561.391,522.896,0.0
27216,PSLV DEB,DEBRIS,2022-05-15 16:13:09,15.08074219,0.0027806999999999997,98.2005,180.9273,297.6354,192.1608,0.00091146,0.00014121,0.0,0 PSLV DEB,1 27216U 01049FL  22135.67580312  .00014121  00000-0  91146-3 0  9990,2 27216  98.2005 180.9273 0027807 297.6354 192.1608 15.08074219107028,6920.222,95.486,561.33,522.844,0.0
27216,PSLV DEB,DEBRIS,2022-05-16 14:36:32,15.08096734,0.0027667,98.2001,181.9231,294.5234,216.9914,0.00086967,0.00013476,0.0,0 PSLV DEB,1 27216U 01049FL  22136.60871188  .00013476  00000-0  86967-3 0  9995,2 27216  98.2001 181.9231 0027667 294.5234 216.9914 15.08096734107162,6920.153,95.485,561.164,522.872,0.0
27216,PSLV DEB,DEBRIS,2022-05-16 21:04:54,15.08101874,0.0027636999999999996,98.2001,182.2106,293.5159,241.3367,0.00078243,0.00012116,0.0,0 PSLV DEB,1 27216U 01049FL  22136.87841201  .00012116  00000-0  78243-3 0  9995,2 27216  98.2001 182.2106 0027637 293.5159 241.3367 15.08101874107200,6920.137,95.484,561.128,522.877,0.0
27216,PSLV DEB,DEBRIS,2022-05-16 22:26:51,15.08103661,0.0027638000000000003,98.1995,182.2711,293.2505,190.3504,0.00078396,0.00012141,0.0,0 PSLV DEB,1 27216U 01049FL  22136.93531543  .00012141  00000-0  78396-3 0  9994,2 27216  98.1995 182.2711 0027638 293.2505 190.3504 15.08103661107219,6920.132,95.484,561.123,522.871,0.0
27216,PSLV DEB,DEBRIS,2022-05-17 14:29:49,15.08124805,0.0027657,98.1993,182.9846,290.8404,221.1599,0.00094725,0.00014699,0.0,0 PSLV DEB,1 27216U 01049FL  22137.60404010  .00014699  00000-0  94725-3 0  9991,2 27216  98.1993 182.9846 0027657 290.8404 221.1599 15.08124805107316,6920.066999999999,95.48299999999999,561.071,522.793,0.0
27216,PSLV DEB,DEBRIS,2022-05-18 02:49:37,15.08139172,0.0027675,98.199,183.533,288.8952,130.6796,0.00090134,0.00013987,0.0,0 PSLV DEB,1 27216U 01049FL  22138.11779225  .00013987  00000-0  90134-3 0  9990,2 27216  98.1990 183.5330 0027675 288.8952 130.6796 15.08139172107386,6920.023,95.48200000000001,561.04,522.737,0.0
27216,PSLV DEB,DEBRIS,2022-05-18 08:58:33,15.08148153,0.0027674,98.1988,183.8063,288.0017,81.7397,0.00099392,0.00015438,0.0,0 PSLV DEB,1 27216U 01049FL  22138.37399896  .00015438  00000-0  99392-3 0  9998,2 27216  98.1988 183.8063 0027674 288.0017  81.7397 15.08148153107430,6919.996,95.48100000000001,561.011,522.711,0.0
27216,PSLV DEB,DEBRIS,2022-05-18 22:13:28,15.0816231,0.0027730999999999997,98.1986,184.3953,285.9120000000001,199.0961,0.00091994,0.00014287,0.0,0 PSLV DEB,1 27216U 01049FL  22138.92602116  .00014287  00000-0  91994-3 0  9992,2 27216  98.1986 184.3953 0027731 285.9120 199.0961 15.08162310107517,6919.953,95.48,561.007,522.628,0.0
27216,PSLV DEB,DEBRIS,2022-05-19 02:41:23,15.08168141,0.002775,98.1985,184.5939,285.2277,129.3235,0.00092929,0.00014436,0.0,0 PSLV DEB,1 27216U 01049FL  22139.11207672  .00014436  00000-0  92929-3 0  9997,2 27216  98.1985 184.5939 0027750 285.2277 129.3235 15.08168141107540,6919.935,95.48,561.003,522.597,0.0
27216,PSLV DEB,DEBRIS,2022-05-19 22:06:46,15.08192089,0.0027836,98.1981,185.4575,282.2872,203.5489,0.001003,0.00015601,0.0,0 PSLV DEB,1 27216U 01049FL  22139.92136868  .00015601  00000-0  10030-2 0  9991,2 27216  98.1981 185.4575 0027836 282.2872 203.5489 15.08192089107662,6919.861999999999,95.479,560.989,522.464,0.0
27216,PSLV DEB,DEBRIS,2022-05-20 02:34:24,15.08198233,0.0027848000000000005,98.1982,185.6556,281.654,132.6637,0.0010194,0.00015859999999999998,0.0,0 PSLV DEB,1 27216U 01049FL  22140.10722503  .00015860  00000-0  10194-2 0  9998,2 27216  98.1982 185.6556 0027848 281.6540 132.6637 15.08198233107688,6919.843000000003,95.478,560.9780000000002,522.437,0.0
27216,PSLV DEB,DEBRIS,2022-05-21 02:27:22,15.08228635,0.0027945,98.1981,186.7174,278.1995,135.8524,0.0010265,0.00015986,0.0,0 PSLV DEB,1 27216U 01049FL  22141.10234763  .00015986  00000-0  10265-2 0  9993,2 27216  98.1981 186.7174 0027945 278.1995 135.8524 15.08228635107846,6919.75,95.476,560.952,522.2769999999998,0.0
27216,PSLV DEB,DEBRIS,2022-05-21 08:52:00,15.08238719,0.0027908,98.197,187.0025,277.1133,146.2945,0.0011376,0.00017733,0.0,0 PSLV DEB,1 27216U 01049FL  22141.36944711  .00017733  00000-0  11376-2 0  9998,2 27216  98.1970 187.0025 0027908 277.1133 146.2945 15.08238719107875,6919.719,95.476,560.895,522.2719999999998,0.0
27216,PSLV DEB,DEBRIS,2022-05-22 08:44:38,15.08268916,0.002798,98.197,188.0638,273.5715,148.4189,0.0010280999999999999,0.00016029,0.0,0 PSLV DEB,1 27216U 01049FL  22142.36433050  .00016029  00000-0  10281-2 0  9999,2 27216  98.1970 188.0638 0027980 273.5715 148.4189 15.08268916108037,6919.6269999999995,95.47399999999999,560.8530000000002,522.13,0.0
27216,PSLV DEB,DEBRIS,2022-05-23 02:13:16,15.08294962,0.0028024,98.1976,188.8407,271.1313,142.5021,0.0010706,0.00016709,0.0,0 PSLV DEB,1 27216U 01049FL  22143.09254889  .00016709  00000-0  10706-2 0  9998,2 27216  98.1976 188.8407 0028024 271.1313 142.5021 15.08294962108134,6919.547,95.47200000000001,560.803,522.021,0.0
27216,PSLV DEB,DEBRIS,2022-05-23 08:37:12,15.08300659,0.0028025,98.1975,189.125,270.166,150.2859,0.00095167,0.00014843,0.0,0 PSLV DEB,1 27216U 01049FL  22143.35916961  .00014843  00000-0  95167-3 0  9995,2 27216  98.1975 189.1250 0028025 270.1660 150.2859 15.08300659108189,6919.529,95.47200000000001,560.786,522.002,0.0
27216,PSLV DEB,DEBRIS,2022-05-24 02:08:57,15.08322799,0.0028019000000000004,98.1974,189.90400000000002,267.5631,156.3464,0.00089539,0.00013967,0.0,0 PSLV DEB,1 27216U 01049FL  22144.08955052  .00013967  00000-0  89539-3 0  9992,2 27216  98.1974 189.9040 0028019 267.5631 156.3464 15.08322799108294,6919.4619999999995,95.47,560.714,521.939,0.0
27216,PSLV DEB,DEBRIS,2022-05-25 15:03:22,15.08363209,0.0027999,98.1973,191.5449,262.1264,226.8667,0.00084505,0.00013191,0.0,0 PSLV DEB,1 27216U 01049FL  22145.62734144  .00013191  00000-0  84505-3 0  9997,2 27216  98.1973 191.5449 0027999 262.1264 226.8667 15.08363209108529,6919.3380000000025,95.46799999999999,560.577,521.83,0.0
27216,PSLV DEB,DEBRIS,2022-05-26 09:38:24,15.08380393,0.0027941999999999997,98.1971,192.3703,259.8857,111.2003,0.00071377,0.00011132,0.0,0 PSLV DEB,1 27216U 01049FL  22146.40166730  .00011132  00000-0  71377-3 0  9990,2 27216  98.1971 192.3703 0027942 259.8857 111.2003 15.08380393108645,6919.286,95.46700000000001,560.484,521.817,0.0
